stk.v.4.3 

BEGIN Ephemeris 
 
NumberOfEphemerisPoints		146 
ScenarioEpoch	    1 Sep 2020 11: 9:23.121199608 
InterpolationMethod		Lagrange 
InterpolationOrder		5 
CentralBody				Earth 
CoordinateSystem			TEME 
CoordinateSystemEpoch	  1 Sep 2020 11: 9:23.121199608 
DistanceUnit			Kilometers 
 
EphemerisTimePosVel 
 
       0.00000000   -6608.56866762    2752.07004176       0.03728988 -0.171137524 -0.435711588  7.448945875
 END Ephemeris 
